OBJECT_NAME,OBJECT_ID,EPOCH,MEAN_MOTION,ECCENTRICITY,INCLINATION,RA_OF_ASC_NODE,ARG_OF_PERICENTER,MEAN_ANOMALY,EPHEMERIS_TYPE,CLASSIFICATION_TYPE,NORAD_CAT_ID,ELEMENT_SET_NO,REV_AT_EPOCH,BSTAR,MEAN_MOTION_DOT,MEAN_MOTION_DDOT
LEMUR-1,2014-033AL,2026-07-07T21:48:25.688160,14.85322651,.00483833,97.7901,338.2567,11.9074,348.3273,0,U,40044,999,64854,.13326593E-3,.1114E-4,0
LEMUR-2-GREENBERG,2017-042N,2026-07-08T10:48:27.218592,15.32004569,.00071741,97.3833,9.9878,288.3377,71.7084,0,U,42837,999,49164,.35672923E-3,.10957E-3,0
LEMUR-2-ANDIS,2017-042P,2026-07-08T05:37:06.421440,15.35722797,.00070806,97.3683,10.0313,288.0321,72.0151,0,U,42838,999,49168,.40768179E-3,.14104E-3,0
LEMUR-2-MONSON,2017-042Q,2026-07-08T07:25:08.648832,15.28630051,.00051384,97.4095,9.7866,277.0653,83.0002,0,U,42839,999,49139,.33056858E-3,.9135E-4,0
LEMUR-2-FURIAUS,2017-042R,2026-07-08T11:00:35.222400,15.30975722,.0006516,97.3781,7.9032,356.1929,3.9261,0,U,42840,999,49146,.37716981E-3,.11223E-3,0
LEMUR-2-PETERG,2017-042S,2026-07-08T05:32:34.772928,15.34841711,.00028953,97.4000,14.3087,253.7094,106.3831,0,U,42841,999,49166,.42712574E-3,.14361E-3,0
LEMUR-2-DEMBITZ,2017-042T,2026-07-07T22:55:56.682624,15.30951469,.0005162,97.3834,10.4419,306.9410,53.1358,0,U,42842,999,49152,.2959853E-3,.8779E-4,0
LEMUR-2-ZACHARY,2017-042W,2026-07-08T06:49:32.301696,15.52227477,.00023152,97.3592,21.3972,284.3315,75.7681,0,U,42845,999,49247,.5596613E-3,.33943E-3,0
LEMUR-2-AMANDA-SVANTE,2021-034B,2026-07-08T11:30:14.477472,15.35658967,.00042578,97.5750,268.3451,159.0301,201.1118,0,U,48269,999,28432,.64496801E-3,.22324E-3,0
LEMUR-2-SPECIAL-K,2021-034F,2026-07-07T18:21:55.147968,15.72000030,.00057988,97.5628,277.2183,219.6386,140.4453,0,U,48273,999,28491,.13219884E-2,.17574E-2,0
LEMUR-2-EMBRIONOVIS,2023-084AQ,2026-07-08T08:22:57.137088,15.38102724,.00077921,97.6312,334.3719,232.9437,127.1096,0,U,56970,999,17093,.24325074E-3,.9045E-4,0
LEMUR-2-DEVERILL-M-T,2023-100F,2026-07-07T16:45:47.686176,15.40821036,.00047974,99.4460,233.3957,329.3522,30.7437,0,U,57391,999,16440,.3956978E-3,.16121E-3,0
LEMUR-2-BASS,2023-174D,2026-07-08T12:57:41.916672,15.43834735,.00079674,97.3840,274.5605,98.0925,262.1227,0,U,58259,999,14865,.29182062E-3,.13158E-3,0
LEMUR-2-JK0903EM1407,2023-174CJ,2026-07-08T10:01:18.269184,15.52810136,.0004219,97.3916,280.5024,55.3925,304.7726,0,U,58336,999,14902,.32827482E-3,.2026E-3,0
LEMUR-2-MJR092620,2023-174CN,2026-07-08T12:40:42.314592,15.45688281,.00059611,97.3970,279.9615,52.3346,307.8443,0,U,58340,999,14894,.30738962E-3,.14763E-3,0
LEMUR-2-NIMBUS2000,2024-022A,2026-07-08T12:22:06.780864,15.40914926,.00094267,97.4097,39.7947,50.2690,309.9386,0,U,58899,999,13555,.40374095E-3,.16555E-3,0
LEMUR-2-VALHALLA,2024-022B,2026-07-08T12:25:21.736416,15.40344373,.00099081,97.4095,39.7731,46.0433,314.1629,0,U,58900,999,13555,.30170396E-3,.12113E-3,0
LEMUR-2-CAEL,2024-022E,2026-07-08T07:32:42.895968,15.41690753,.00079027,97.4078,40.5408,33.0363,327.1376,0,U,58903,999,13559,.28530534E-3,.11966E-3,0
LEMUR-2-JOHNNYTRUONG,2024-043BA,2026-07-08T08:45:16.814016,15.62147729,.00043005,97.5390,342.4070,112.6150,247.5563,0,U,59146,999,13134,.33734934E-3,.29538E-3,0
LEMUR-2-TOMATOKECHUP,2024-149D,2026-07-07T18:07:55.111008,15.36476705,.00029644,97.3789,270.8599,136.0140,224.1341,0,U,60471,999,10532,.20696303E-3,.7285E-4,0
LEMUR-2-STELLA,2024-149BT,2026-07-08T04:37:18.318432,15.12271376,.000106,97.6726,271.7449,111.1796,248.9548,0,U,60533,999,10367,.39237653E-3,.6723E-4,0
LEMUR-2-MARHISYAM,2024-149BW,2026-07-08T12:16:52.550976,15.11690447,.00027836,97.6873,272.5360,79.6906,280.4637,0,U,60536,999,10370,.46938852E-3,.7928E-4,0
LEMUR-2-AHMED-ASRAR,2024-149DN,2026-07-08T01:29:22.546464,15.13199165,.00006331,97.6996,274.2584,252.4432,107.6729,0,U,60576,999,10372,.40128888E-3,.7058E-4,0
LEMUR-2-LLOYD,2024-149DP,2026-07-07T11:02:38.252544,15.09650711,.00049101,97.6734,269.6046,90.2019,269.9772,0,U,60577,999,10345,.40278112E-3,.642E-4,0
LEMUR-2-SQUIRRELCOMM,2024-149DQ,2026-07-08T00:49:41.985408,15.07397331,.00047468,97.6707,269.8822,354.4134,5.7039,0,U,60578,999,10354,.24740327E-3,.3681E-4,0
LEMUR-2-SIERRINI,2024-149DR,2026-07-08T11:21:25.251552,15.11415684,.0006539,97.6833,272.1651,108.1566,252.0376,0,U,60579,999,10367,.36517208E-3,.6107E-4,0
LEMUR-2-WILSON,2025-009CP,2026-07-08T10:37:57.505152,14.95263092,.00025129,97.7023,267.5350,1.2947,358.8280,0,U,62694,999,8053,.16290216E-3,.1736E-4,0
LEMUR-2-STAR-FOX,2025-009CR,2026-07-08T11:14:40.587648,15.02789253,.00031805,97.6924,270.9258,65.7549,294.4008,0,U,62696,999,8075,.26966727E-3,.3548E-4,0
LEMUR-2-ARIANNA,2025-009CU,2026-07-08T11:12:28.281600,15.02788966,.00035072,97.6862,270.6819,71.2529,288.9076,0,U,62699,999,8075,.28414705E-3,.3741E-4,0
LEMUR-2-ALISIA,2025-009DB,2026-07-08T12:10:37.950816,15.03106706,.00035441,97.6958,271.5331,150.6602,209.4823,0,U,62706,999,10336,.44512254E-3,.5947E-4,0
